[
    {
        "Altitude(m)": 604234.589366875,
        "Argument of Periapsis(deg)": 0.0,
        "Eccentricity": 0.0,
        "Inclination(deg)": 60.0,
        "Latitude(deg)": 14.117122492282101,
        "Longitude(deg)": -68.27267742453849,
        "Mean Anomaly(deg)": -196.36359999999996,
        "RAAN(deg)": 220.00000000000003,
        "Satellite Name": "Test1 978",
        "Satellite Number": 978,
        "Semi-Major Axis(m)": 6980739.136638005,
        "Time(s)": 0
    },
    {
        "Altitude(m)": 604223.4186465878,
        "Argument of Periapsis(deg)": 0.00010418945913296404,
        "Eccentricity": 0.0,
        "Inclination(deg)": 60.0,
        "Latitude(deg)": 13.582258952175048,
        "Longitude(deg)": -67.98576819653006,
        "Mean Anomaly(deg)": -195.7434938545382,
        "RAAN(deg)": 219.99957995086027,
        "Satellite Name": "Test1 978",
        "Satellite Number": 978,
        "Semi-Major Axis(m)": 6980739.136638005,
        "Time(s)": 10
    }
]